[{"OBJECT_NAME":"STARLINK-6067","OBJECT_ID":"2023-078BB","EPOCH":"2026-03-09T23:48:08.788896","MEAN_MOTION":14.983264,"ECCENTRICITY":0.00026539,"INCLINATION":70.0005,"RA_OF_ASC_NODE":323.4976,"ARG_OF_PERICENTER":261.3525,"MEAN_ANOMALY":98.7334,"EPHEMERIS_TYPE":0,"CLASSIFICATION_TYPE":"U","NORAD_CAT_ID":56816,"ELEMENT_SET_NO":999,"REV_AT_EPOCH":15322,"BSTAR":9.7884525e-5,"MEAN_MOTION_DOT":1.075e-5,"MEAN_MOTION_DDOT":0},{"OBJECT_NAME":"KORSAT-3","OBJECT_ID":"2025-081A","EPOCH":"2026-03-09T21:24:50.510592","MEAN_MOTION":14.99637968,"ECCENTRICITY":0.00099231,"INCLINATION":45.4106,"RA_OF_ASC_NODE":130.6437,"ARG_OF_PERICENTER":32.4345,"MEAN_ANOMALY":327.7142,"EPHEMERIS_TYPE":0,"CLASSIFICATION_TYPE":"U","NORAD_CAT_ID":63630,"ELEMENT_SET_NO":999,"REV_AT_EPOCH":4828,"BSTAR":0.00043193523,"MEAN_MOTION_DOT":5.176e-5,"MEAN_MOTION_DDOT":0}]
